NORAD_CAT_ID,OBJECT_NAME,OBJECT_TYPE,EPOCH,MEAN_MOTION,ECCENTRICITY,INCLINATION,RA_OF_ASC_NODE,ARG_OF_PERICENTER,MEAN_ANOMALY,BSTAR,MEAN_MOTION_DOT,MEAN_MOTION_DDOT,TLE_LINE0,TLE_LINE1,TLE_LINE2,SEMIMAJOR_AXIS,PERIOD,APOGEE,PERIGEE,DECAYED
52460.0,STARLINK-3865,PAYLOAD,2024-05-27 14:16:49,15.08839326,0.0001558,53.2176,101.9472,88.1646,271.9525,6.5593e-05,7.56e-06,0.0,0 STARLINK-3865,1 52460U 22049K   24148.59501910  .00000756  00000-0  65593-4 0  9993,2 52460  53.2176 101.9472 0001558  88.1646 271.9525 15.08839326113954,6917.882,95.438,540.825,538.67,0.0
52460.0,STARLINK-3865,PAYLOAD,2024-05-28 06:10:41,15.08840833,0.0001557,53.2174,98.9729,91.7304,268.3867,5.3577e-05,5.65e-06,0.0,0 STARLINK-3865,1 52460U 22049K   24149.25741900  .00000565  00000-0  53577-4 0  9999,2 52460  53.2174  98.9729 0001557  91.7304 268.3867 15.08840833114058,6917.878,95.438,540.82,538.666,0.0
52460.0,STARLINK-3865,PAYLOAD,2024-05-29 02:50:41,15.08841612,0.0001545,53.2173,95.1067,93.1948,266.922,2.6875e-05,1.4e-06,0.0,0 STARLINK-3865,1 52460U 22049K   24150.11853841  .00000140  00000-0  26875-4 0  9994,2 52460  53.2173  95.1067 0001545  93.1948 266.9220 15.08841612114343,6917.875,95.437,540.809,538.672,0.0
52460.0,STARLINK-3865,PAYLOAD,2024-05-29 20:19:56,15.08838052,0.0001565,53.217,91.8352,84.7857,275.3313,-6.3392e-07,-2.98e-06,0.0,0 STARLINK-3865,1 52460U 22049K   24150.84718288 -.00000298  00000-0 -63392-6 0  9992,2 52460  53.2170  91.8352 0001565  84.7857 275.3313 15.08838052114292,6917.886,95.438,540.834,538.669,0.0
52460.0,STARLINK-3865,PAYLOAD,2024-05-30 05:52:15,15.08838461,0.0001558,53.2177,90.0521,93.3429,266.7741,-1.2031e-06,-3.07e-06,0.0,0 STARLINK-3865,1 52460U 22049K   24151.24462241 -.00000307  00000-0 -12031-5 0  9996,2 52460  53.2177  90.0521 0001558  93.3429 266.7741 15.08838461114519,6917.885,95.438,540.828,538.672,0.0
52460.0,STARLINK-3865,PAYLOAD,2024-05-31 02:32:15,15.08843436,0.0001567,53.2181,86.1872,94.6453,265.4718,6.2777e-05,7.11e-06,0.0,0 STARLINK-3865,1 52460U 22049K   24152.10573650  .00000711  00000-0  62777-4 0  9997,2 52460  53.2181  86.1872 0001567  94.6453 265.4718 15.08843436114642,6917.87,95.437,540.819,538.651,0.0
52460.0,STARLINK-3865,PAYLOAD,2024-05-31 05:43:01,15.08844332,0.0001527,53.2177,85.5916,98.6784,261.4381,8.0394e-05,9.92e-06,0.0,0 STARLINK-3865,1 52460U 22049K   24152.23821488  .00000992  00000-0  80394-4 0  9992,2 52460  53.2177  85.5916 0001527  98.6784 261.4381 15.08844332114509,6917.867,95.437,540.789,538.676,0.0
52460.0,STARLINK-3865,PAYLOAD,2024-06-01 02:23:03,15.08839233,0.0001552,53.2179,81.7292,88.8238,271.2932,-2.5483e-05,-6.94e-06,0.0,0 STARLINK-3865,1 52460U 22049K   24153.09934237 -.00000694  00000-0 -25483-4 0  9993,2 52460  53.2179  81.7292 0001552  88.8238 271.2932 15.08839233114795,6917.883,95.438,540.821,538.674,0.0
52460.0,STARLINK-3865,PAYLOAD,2024-06-01 05:33:49,15.08838711,0.0001392,53.2179,81.1327,89.34,270.7752,3.8852e-05,3.3e-06,0.0,0 STARLINK-3865,1 52460U 22049K   24153.23182065  .00000330  00000-0  38852-4 0  9992,2 52460  53.2179  81.1327 0001392  89.3400 270.7752 15.08838711114656,6917.884,95.438,540.712,538.786,0.0
52460.0,STARLINK-3865,PAYLOAD,2024-06-01 19:52:18,15.08832562,0.000128,53.2162,78.4549,84.5122,275.6016,-7.0092e-05,-1.403e-05,0.0,0 STARLINK-3865,1 52460U 22049K   24153.82799017 -.00001403  00000-0 -70092-4 0  9994,2 52460  53.2162  78.4549 0001280  84.5122 275.6016 15.08832562114900,6917.903,95.438,540.654,538.883,0.0
52460.0,STARLINK-3865,PAYLOAD,2024-06-02 03:49:13,15.08841193,0.0001369,53.2173,76.9705,94.6473,265.4675,-5.0531e-05,-1.092e-05,0.0,0 STARLINK-3865,1 52460U 22049K   24154.15918510 -.00001092  00000-0 -50531-4 0  9992,2 52460  53.2173  76.9705 0001369  94.6473 265.4675 15.08841193114951,6917.877,95.437,540.689,538.795,0.0
52460.0,STARLINK-3865,PAYLOAD,2024-06-03 11:36:56,15.08836836,0.0001247,53.2161,71.0214,89.0023,271.1112,3.1626e-05,2.15e-06,0.0,0 STARLINK-3865,1 52460U 22049K   24155.48398847  .00000215  00000-0  31626-4 0  9992,2 52460  53.2161  71.0214 0001247  89.0023 271.1112 15.08836836115154,6917.89,95.438,540.618,538.892,0.0
52460.0,STARLINK-3865,PAYLOAD,2024-06-04 03:30:47,15.08845205,0.0001317,53.2188,68.0472,92.9008,267.2135,0.00012363,1.68e-05,0.0,0 STARLINK-3865,1 52460U 22049K   24156.14638183  .00001680  00000-0  12363-3 0  9999,2 52460  53.2188  68.0472 0001317  92.9008 267.2135 15.08845205115251,6917.864,95.437,540.641,538.818,0.0
52460.0,STARLINK-3865,PAYLOAD,2024-06-04 11:27:43,15.08848996,0.0001299,53.2189,66.5581,85.9169,274.1972,-6.3277e-05,-1.295e-05,0.0,0 STARLINK-3865,1 52460U 22049K   24156.47758373 -.00001295  00000-0 -63277-4 0  9994,2 52460  53.2189  66.5581 0001299  85.9169 274.1972 15.08848996115149,6917.853,95.437,540.617,538.819,0.0
52460.0,STARLINK-3865,PAYLOAD,2024-06-05 11:18:30,15.08837225,0.0001501,53.2194,62.0974,104.7273,255.3885,3.536e-06,-2.32e-06,0.0,0 STARLINK-3865,1 52460U 22049K   24157.47118759 -.00000232  00000-0  35360-5 0  9995,2 52460  53.2194  62.0974 0001501 104.7273 255.3885 15.08837225115455,6917.889,95.438,540.792,538.715,0.0
52460.0,STARLINK-3865,PAYLOAD,2024-06-06 00:01:35,15.08839666,0.0001364,53.2194,59.72,101.0952,259.0193,-2.6488e-06,-3.3e-06,0.0,0 STARLINK-3865,1 52460U 22049K   24158.00110672 -.00000330  00000-0 -26488-5 0  9992,2 52460  53.2194  59.7200 0001364 101.0952 259.0193 15.08839666115376,6917.881,95.438,540.69,538.803,0.0
52460.0,STARLINK-3865,PAYLOAD,2024-06-07 01:27:45,15.08854541,0.000146,53.2183,54.9627,104.5994,255.516,-0.00014909,-2.661e-05,0.0,0 STARLINK-3865,1 52460U 22049K   24159.06094212 -.00002661  00000-0 -14909-3 0  9992,2 52460  53.2183  54.9627 0001460 104.5994 255.5160 15.08854541115694,6917.836,95.437,540.711,538.691,0.0
52460.0,STARLINK-3865,PAYLOAD,2024-06-07 17:21:37,15.08834311,0.0001959,53.2156,51.9883,105.9055,254.2153,-1.5057e-05,-5.28e-06,0.0,0 STARLINK-3865,1 52460U 22049K   24159.72335217 -.00000528  00000-0 -15057-4 0  9994,2 52460  53.2156  51.9883 0001959 105.9055 254.2153 15.08834311115793,6917.898,95.438,541.118,538.408,0.0
52460.0,STARLINK-3865,PAYLOAD,2024-06-07 22:07:47,15.08836384,0.0001975,53.2199,51.0958,98.7645,261.3571,-6.7874e-05,-1.368e-05,0.0,0 STARLINK-3865,1 52460U 22049K   24159.92207374 -.00001368  00000-0 -67874-4 0  9995,2 52460  53.2199  51.0958 0001975  98.7645 261.3571 15.08836384115667,6917.891,95.438,541.123,538.39,0.0
52460.0,STARLINK-3865,PAYLOAD,2024-06-08 09:15:27,15.08883145,0.000114,53.2177,49.0172,99.2087,260.9034,-0.00064989,-0.00010628,0.0,0 STARLINK-3865,1 52460U 22049K   24160.38573780 -.00010628  00000-0 -64989-3 0  9996,2 52460  53.2177  49.0172 0001140  99.2087 260.9034 15.08883145115732,6917.749,95.435,540.402,538.825,0.0
52460.0,STARLINK-3865,PAYLOAD,2024-06-08 21:58:34,15.08832852,0.0001333,53.2188,46.6385,72.822,287.2918,0.00012139,1.644e-05,0.0,0 STARLINK-3865,1 52460U 22049K   24160.91567279  .00001644  00000-0  12139-3 0  9997,2 52460  53.2188  46.6385 0001333  72.8220 287.2918 15.08832852115814,6917.902,95.438,540.689,538.845,0.0
52460.0,STARLINK-3865,PAYLOAD,2024-06-08 23:33:56,15.08836849,9.84e-05,53.2178,46.3409,72.199,287.9109,0.0001623,2.296e-05,0.0,0 STARLINK-3865,1 52460U 22049K   24160.98190864  .00002296  00000-0  16230-3 0  9996,2 52460  53.2178  46.3409 0000984  72.1990 287.9109 15.08836849115982,6917.89,95.438,540.436,539.074,0.0
52460.0,STARLINK-3865,PAYLOAD,2024-06-09 17:03:12,15.08831329,0.0001023,53.2187,43.0723,82.8046,277.3062,3.2882e-05,2.35e-06,0.0,0 STARLINK-3865,1 52460U 22049K   24161.71056085  .00000235  00000-0  32882-4 0  9997,2 52460  53.2187  43.0723 0001023  82.8046 277.3062 15.08831329116092,6917.907,95.438,540.48,539.064,0.0
52460.0,STARLINK-3865,PAYLOAD,2024-06-09 21:49:21,15.08831707,0.0001141,53.2177,42.1807,90.5568,269.5555,3.5894e-05,2.83e-06,0.0,0 STARLINK-3865,1 52460U 22049K   24161.90928122  .00000283  00000-0  35894-4 0  9997,2 52460  53.2177  42.1807 0001141  90.5568 269.5555 15.08831707115965,6917.906,95.438,540.56,538.981,0.0
52460.0,STARLINK-3865,PAYLOAD,2024-06-10 08:57:03,15.08836243,0.0001385,53.2188,40.0961,77.3114,282.8033,5.3217e-05,5.59e-06,0.0,0 STARLINK-3865,1 52460U 22049K   24162.37295992  .00000559  00000-0  53217-4 0  9996,2 52460  53.2188  40.0961 0001385  77.3114 282.8033 15.08836243116033,6917.892,95.438,540.715,538.799,0.0
52460.0,STARLINK-3865,PAYLOAD,2024-06-10 21:40:08,15.08840839,0.0001314,53.2187,37.7161,77.7761,282.3378,2.9069e-05,1.75e-06,0.0,0 STARLINK-3865,1 52460U 22049K   24162.90287902  .00000175  00000-0  29069-4 0  9999,2 52460  53.2187  37.7161 0001314  77.7761 282.3378 15.08840839116270,6917.878,95.438,540.652,538.834,0.0
52460.0,STARLINK-3865,PAYLOAD,2024-06-10 23:15:31,15.08849108,0.0001112,53.2178,37.4237,97.8245,262.2874,9.1578e-05,1.17e-05,0.0,0 STARLINK-3865,1 52460U 22049K   24162.96911102  .00001170  00000-0  91578-4 0  9991,2 52460  53.2178  37.4237 0001112  97.8245 262.2874 15.08849108116284,6917.853,95.437,540.487,538.948,0.0
52460.0,STARLINK-3865,PAYLOAD,2024-06-11 08:47:50,15.08841712,8.78e-05,53.2179,35.6373,81.34,278.7692,9.1988e-05,1.177e-05,0.0,0 STARLINK-3865,1 52460U 22049K   24163.36655483  .00001177  00000-0  91988-4 0  9995,2 52460  53.2179  35.6373 0000878  81.3400 278.7692 15.08841712116187,6917.875,95.437,540.348,539.133,0.0
52460.0,STARLINK-3865,PAYLOAD,2024-06-12 00:41:41,15.08849066,0.0001224,53.2182,32.6607,90.4587,269.6546,0.00014567,2.032e-05,0.0,0 STARLINK-3865,1 52460U 22049K   24164.02894765  .00002032  00000-0  14567-3 0  9995,2 52460  53.2182  32.6607 0001224  90.4587 269.6546 15.08849066116447,6917.853,95.437,540.564,538.871,0.0
52460.0,STARLINK-3865,PAYLOAD,2024-06-12 08:38:37,15.08839866,0.0001171,53.2189,31.1741,88.2574,271.8552,3.3032e-05,2.38e-06,0.0,0 STARLINK-3865,1 52460U 22049K   24164.36015605  .00000238  00000-0  33032-4 0  9995,2 52460  53.2189  31.1741 0001171  88.2574 271.8552 15.08839866116493,6917.881,95.438,540.556,538.936,0.0
